*******************************************************************************
JPL/HORIZONS                     (2010 TK7)                2012-Dec-14 02:27:10
Rec #:697678 (+COV)   Soln.date: 2011-Sep-14_20:57:48     # obs: 40 (2010-2011)
 
FK5/J2000.0 helio. ecliptic osc. elements (AU, DAYS, DEG, period=Julian yrs):  
 
  EPOCH=  2455507.5 ! 2010-Nov-07.00 (CT)         Residual RMS= .21987         
    EC= .1908129171965889  QR= .8095350685617207  TP= 2455579.884266772        
    OM= 96.54520576469859  W= 45.84669041570982   IN= 20.87827982503973        
    A= 1.000430043639728   MA= 288.7035074324965  ADIST= 1.191325018717735     
    PER= 1.00066           N= .984972229          ANGMOM= .016889665           
    DAN= .8509100000000001 DDN= 1.11178           L= 140.4466598               
    B= 14.8149329                                 TP= 2011-Jan-18.3842668      
 
Physical parameters (KM, SEC, rotational period in hours):
    GM= n.a.               RAD= n.a.              ROTPER= n.a.                 
    H= 20.627              G= .150                B-V= n.a.                    
                           ALBEDO= n.a.           STYP= n.a.                   
 
ASTEROID comments: 
1: soln ref.= JPL#11, OCC=2
2: source=ORB
*******************************************************************************
 
 
*******************************************************************************
Ephemeris / WWW_USER Fri Dec 14 02:27:10 2012 Pasadena, USA      / Horizons    
*******************************************************************************
Target body name: (2010 TK7)                      {source: JPL#11}
Center body name: Earth (399)                     {source: DE405}
Center-site name: (user defined site below)
*******************************************************************************
Start time      : A.D. 2012-Dec-11 00:00:00.0000 UT      
Stop  time      : A.D. 2013-Jan-11 00:00:00.0000 UT      
Step-size       : 1 minutes
*******************************************************************************
Target pole/equ : No model available
Target radii    : (unavailable)                                                
Center geodetic : 8.53330000,47.3667476,-0.000128 {E-lon(deg),Lat(deg),Alt(km)}
Center cylindric: 8.53330000,4327.78336,4669.4727 {E-lon(deg),Dxy(km),Dz(km)}
Center pole/equ : High-precision EOP model        {East-longitude +}
Center radii    : 6378.1 x 6378.1 x 6356.8 km     {Equator, meridian, pole}    
Target primary  : Sun                             {source: DE405}
Interfering body: MOON (Req= 1737.400) km         {source: DE405}
Deflecting body : Sun, EARTH                      {source: DE405}
Deflecting GMs  : 1.3271E+11, 3.9860E+05 km^3/s^2                              
Small perturbers: Ceres, Pallas, Vesta            {source: SB405-CPV-2}
Small body GMs  : 6.32E+01, 1.43E+01, 1.78E+01 km^3/s^2                        
Atmos refraction: YES (Earth refraction model)
RA format       : DEG
Time format     : CAL 
RTS-only print  : NO       
EOP file        : eop.121213.p130306                                           
EOP coverage    : DATA-BASED 1962-JAN-20 TO 2012-DEC-13. PREDICTS-> 2013-MAR-05
Units conversion: 1 AU= 149597870.691 km, c= 299792.458 km/s, 1 day= 86400.0 s 
Table cut-offs 1: Elevation (-90.0deg=NO ),Airmass (>38.000=NO), Daylight (NO )
Table cut-offs 2: Solar Elongation (  0.0,180.0=NO )                           
Table format    : Comma Separated Values (spreadsheet)
*******************************************************************************
Initial FK5/J2000.0 heliocentric ecliptic osculating elements (AU, DAYS, DEG):
  EPOCH=  2455507.5 ! 2010-Nov-07.00 (CT)         Residual RMS= .21987         
    EC= .1908129171965889  QR= .8095350685617207  TP= 2455579.884266772        
    OM= 96.54520576469859  W= 45.84669041570982   IN= 20.87827982503973        
Asteroid physical parameters (KM, SEC, rotational period in hours):
    GM= n.a.               RAD= n.a.              ROTPER= n.a.                 
    H= 20.627              G= .150                B-V= n.a.                    
                           ALBEDO= n.a.           STYP= n.a.                   
*********************************************************************************
 Date__(UT)__HR:MN, , ,Azi_(r-appr), Elev_(r-appr),            delta,     deldot,
*********************************************************************************
$$SOE
 2013-Jan-07 07:47,*,m,166.2325, 45.1158, 5.3629432379E+07, 13.5121429,
 2013-Jan-07 07:48,*,m,166.5817, 45.1558, 5.3630243058E+07, 13.5135683,
 2013-Jan-07 07:49,*,m,166.9313, 45.1948, 5.3631053822E+07, 13.5149947,
 2013-Jan-07 07:50,*,m,167.2814, 45.2328, 5.3631864673E+07, 13.5164221,
 2013-Jan-07 07:51,*,m,167.6320, 45.2698, 5.3632675608E+07, 13.5178504,
 2013-Jan-07 07:52,*,m,167.9830, 45.3058, 5.3633486630E+07, 13.5192796,
 2013-Jan-07 07:53,*,m,168.3344, 45.3407, 5.3634297737E+07, 13.5207096,
 2013-Jan-07 07:54,*,m,168.6862, 45.3747, 5.3635108930E+07, 13.5221406,
 2013-Jan-07 07:55,*,m,169.0385, 45.4076, 5.3635920209E+07, 13.5235723,
 2013-Jan-07 07:56,*,m,169.3911, 45.4395, 5.3636731574E+07, 13.5250048,
 2013-Jan-07 07:57,*,m,169.7441, 45.4704, 5.3637543025E+07, 13.5264381,
 2013-Jan-07 07:58,*,m,170.0975, 45.5003, 5.3638354562E+07, 13.5278721,
 2013-Jan-07 07:59,*,m,170.4513, 45.5291, 5.3639166185E+07, 13.5293069,
 2013-Jan-07 08:00,*,m,170.8054, 45.5569, 5.3639977894E+07, 13.5307423,
 2013-Jan-07 08:01,*,m,171.1598, 45.5837, 5.3640789689E+07, 13.5321784,
 2013-Jan-07 08:02,*,m,171.5145, 45.6094, 5.3641601571E+07, 13.5336151,
 2013-Jan-07 08:03,*,m,171.8696, 45.6341, 5.3642413538E+07, 13.5350525,
 2013-Jan-07 08:04,*,m,172.2250, 45.6578, 5.3643225592E+07, 13.5364904,
 2013-Jan-07 08:05,*,m,172.5806, 45.6804, 5.3644037732E+07, 13.5379289,
 2013-Jan-07 08:06,*,m,172.9365, 45.7020, 5.3644849959E+07, 13.5393679,
 2013-Jan-07 08:07,*,m,173.2927, 45.7225, 5.3645662272E+07, 13.5408074,
 2013-Jan-07 08:08,*,m,173.6491, 45.7420, 5.3646474671E+07, 13.5422475,
 2013-Jan-07 08:09,*,m,174.0058, 45.7604, 5.3647287156E+07, 13.5436879,
 2013-Jan-07 08:10,*,m,174.3627, 45.7778, 5.3648099728E+07, 13.5451288,
 2013-Jan-07 08:11,*,m,174.7198, 45.7942, 5.3648912387E+07, 13.5465701,
 2013-Jan-07 08:12,*,m,175.0770, 45.8095, 5.3649725132E+07, 13.5480118,
 2013-Jan-07 08:13,*,m,175.4345, 45.8237, 5.3650537963E+07, 13.5494538,
 2013-Jan-07 08:14,*,m,175.7922, 45.8369, 5.3651350881E+07, 13.5508962,
 2013-Jan-07 08:15,*,m,176.1500, 45.8490, 5.3652163886E+07, 13.5523389,
 2013-Jan-07 08:16,*,m,176.5079, 45.8601, 5.3652976977E+07, 13.5537818,
 2013-Jan-07 08:17,*,m,176.8660, 45.8701, 5.3653790154E+07, 13.5552250,
 2013-Jan-07 08:18,*,m,177.2242, 45.8791, 5.3654603419E+07, 13.5566684,
 2013-Jan-07 08:19,*,m,177.5825, 45.8870, 5.3655416769E+07, 13.5581119,
 2013-Jan-07 08:20,*,m,177.9409, 45.8938, 5.3656230207E+07, 13.5595557,
 2013-Jan-07 08:21,*,m,178.2994, 45.8996, 5.3657043731E+07, 13.5609996,
 2013-Jan-07 08:22,*,m,178.6579, 45.9044, 5.3657857341E+07, 13.5624436,
 2013-Jan-07 08:23,*,m,179.0165, 45.9081, 5.3658671039E+07, 13.5638877,
 2013-Jan-07 08:24,*,m,179.3752, 45.9107, 5.3659484823E+07, 13.5653319,
 2013-Jan-07 08:25,*,m,179.7338, 45.9122, 5.3660298693E+07, 13.5667761,
 2013-Jan-07 08:26,*,t,180.0925, 45.9127, 5.3661112651E+07, 13.5682204,
 2013-Jan-07 08:27,*,m,180.4512, 45.9122, 5.3661926694E+07, 13.5696646,
 2013-Jan-07 08:28,*,m,180.8098, 45.9105, 5.3662740825E+07, 13.5711087,
 2013-Jan-07 08:29,*,m,181.1685, 45.9079, 5.3663555042E+07, 13.5725528,
 2013-Jan-07 08:30,*,m,181.5271, 45.9041, 5.3664369346E+07, 13.5739969,
 2013-Jan-07 08:31,*,m,181.8856, 45.8993, 5.3665183736E+07, 13.5754407,
 2013-Jan-07 08:32,*,m,182.2441, 45.8935, 5.3665998213E+07, 13.5768845,
 2013-Jan-07 08:33,*,m,182.6025, 45.8866, 5.3666812777E+07, 13.5783281,
 2013-Jan-07 08:34,*,m,182.9608, 45.8786, 5.3667627427E+07, 13.5797715,
 2013-Jan-07 08:35,*,m,183.3189, 45.8696, 5.3668442164E+07, 13.5812146,
 2013-Jan-07 08:36,*,m,183.6770, 45.8595, 5.3669256987E+07, 13.5826575,
 2013-Jan-07 08:37,*,m,184.0350, 45.8483, 5.3670071897E+07, 13.5841002,
 2013-Jan-07 08:38,*,m,184.3927, 45.8361, 5.3670886894E+07, 13.5855425,
 2013-Jan-07 08:39,*,m,184.7504, 45.8229, 5.3671701977E+07, 13.5869845,
 2013-Jan-07 08:40,*,m,185.1078, 45.8086, 5.3672517146E+07, 13.5884262,
 2013-Jan-07 08:41,*,m,185.4651, 45.7932, 5.3673332402E+07, 13.5898674,
 2013-Jan-07 08:42,*,m,185.8222, 45.7768, 5.3674147745E+07, 13.5913083,
 2013-Jan-07 08:43,*,m,186.1791, 45.7594, 5.3674963174E+07, 13.5927487,
 2013-Jan-07 08:44,*,m,186.5357, 45.7409, 5.3675778689E+07, 13.5941887,
 2013-Jan-07 08:45,*,m,186.8921, 45.7213, 5.3676594291E+07, 13.5956282,
 2013-Jan-07 08:46,*,m,187.2483, 45.7007, 5.3677409979E+07, 13.5970672,
 2013-Jan-07 08:47,*,m,187.6042, 45.6791, 5.3678225753E+07, 13.5985056,
 2013-Jan-07 08:48,*,m,187.9598, 45.6564, 5.3679041614E+07, 13.5999435,
 2013-Jan-07 08:49,*,m,188.3151, 45.6327, 5.3679857560E+07, 13.6013808,
 2013-Jan-07 08:50,*,m,188.6702, 45.6080, 5.3680673594E+07, 13.6028175,
 2013-Jan-07 08:51,*,m,189.0249, 45.5822, 5.3681489713E+07, 13.6042536,
 2013-Jan-07 08:52,*,m,189.3793, 45.5553, 5.3682305918E+07, 13.6056890,
 2013-Jan-07 08:53,*,m,189.7334, 45.5275, 5.3683122210E+07, 13.6071237,
 2013-Jan-07 08:54,*,m,190.0871, 45.4986, 5.3683938587E+07, 13.6085576,
 2013-Jan-07 08:55,*,m,190.4405, 45.4687, 5.3684755051E+07, 13.6099909,
 2013-Jan-07 08:56,*,m,190.7935, 45.4377, 5.3685571600E+07, 13.6114233,
 2013-Jan-07 08:57,*,m,191.1461, 45.4058, 5.3686388235E+07, 13.6128550,
 2013-Jan-07 08:58,*,m,191.4983, 45.3728, 5.3687204957E+07, 13.6142858,
 2013-Jan-07 08:59,*,m,191.8501, 45.3388, 5.3688021764E+07, 13.6157158,
 2013-Jan-07 09:00,*,m,192.2015, 45.3037, 5.3688838657E+07, 13.6171450,
 2013-Jan-07 09:01,*,m,192.5525, 45.2677, 5.3689655635E+07, 13.6185732,
 2013-Jan-07 09:02,*,m,192.9030, 45.2307, 5.3690472699E+07, 13.6200005,
 2013-Jan-07 09:03,*,m,193.2531, 45.1926, 5.3691289849E+07, 13.6214268,
